COMMENT,ORIGINATOR,NORAD_CAT_ID,OBJECT_NAME,OBJECT_TYPE,CLASSIFICATION_TYPE,INTLDES,EPOCH,EPOCH_MICROSECONDS,MEAN_MOTION,ECCENTRICITY,INCLINATION,RA_OF_ASC_NODE,ARG_OF_PERICENTER,MEAN_ANOMALY,EPHEMERIS_TYPE,ELEMENT_SET_NO,REV_AT_EPOCH,BSTAR,MEAN_MOTION_DOT,MEAN_MOTION_DDOT,FILE,TLE_LINE0,TLE_LINE1,TLE_LINE2,OBJECT_ID,OBJECT_NUMBER,SEMIMAJOR_AXIS,PERIOD,APOGEE,PERIGEE,DECAYED
"GENERATED VIA SPACETRACK.ORG API","18 SPCS","55095","SPACEBEE-162","PAYLOAD","U","23001CQ","2023-09-13 17:26:06","551808","15.23101629","0.0014698","97.4682","316.1743","58.2431","302.0236","0","999","3856","0.0012476","0.00029531","0","4005648","0 SPACEBEE-162","1 55095U 23001CQ  23256.72646472  .00029531  00000-0  12476-2 0  9998","2 55095  97.4682 316.1743 0014698  58.2431 302.0236 15.23101629 38566","2023-001CQ","55095","6874.629","94.544","506.598","486.389","0"
"GENERATED VIA SPACETRACK.ORG API","18 SPCS","55095","SPACEBEE-162","PAYLOAD","U","23001CQ","2023-09-14 02:53:43","920672","15.23120976","0.0014685","97.4681","316.5666","56.7408","303.5234","0","999","3862","0.0011209","0.00026529","0","4005987","0 SPACEBEE-162","1 55095U 23001CQ  23257.12064723  .00026529  00000-0  11209-2 0  9993","2 55095  97.4681 316.5666 0014685  56.7408 303.5234 15.23120976 38623","2023-001CQ","55095","6874.571","94.543","506.531","486.340","0"
"GENERATED VIA SPACETRACK.ORG API","18 SPCS","55095","SPACEBEE-162","PAYLOAD","U","23001CQ","2023-09-14 02:53:43","920672","15.23120976","0.0014685","97.4681","316.5666","56.7408","303.5234","0","999","3862","0.0011209","0.00026529","0","4006374","0 SPACEBEE-162","1 55095U 23001CQ  23257.12064723  .00026529  00000-0  11209-2 0  9993","2 55095  97.4681 316.5666 0014685  56.7408 303.5234 15.23120976 38623","2023-001CQ","55095","6874.571","94.543","506.531","486.340","0"
"GENERATED VIA SPACETRACK.ORG API","18 SPCS","55095","SPACEBEE-162","PAYLOAD","U","23001CQ","2023-09-14 17:05:09","205440","15.23148475","0.0014631","97.4681","317.1546","55.0113","305.2495","0","999","3871","0.0010578","0.00025047","0","4006631","0 SPACEBEE-162","1 55095U 23001CQ  23257.71191210  .00025047  00000-0  10578-2 0  9992","2 55095  97.4681 317.1546 0014631  55.0113 305.2495 15.23148475 38715","2023-001CQ","55095","6874.488","94.541","506.411","486.295","0"
"GENERATED VIA SPACETRACK.ORG API","18 SPCS","55095","SPACEBEE-162","PAYLOAD","U","23001CQ","2023-09-15 07:16:33","579552","15.2317496","0.0014577","97.4677","317.7425","52.9999","307.2569","0","999","3880","0.0010581","0.00025073","0","4007202","0 SPACEBEE-162","1 55095U 23001CQ  23258.30316643  .00025073  00000-0  10581-2 0  9990","2 55095  97.4677 317.7425 0014577  52.9999 307.2569 15.23174960 38801","2023-001CQ","55095","6874.408","94.539","506.294","486.252","0"
"GENERATED VIA SPACETRACK.ORG API","18 SPCS","55095","SPACEBEE-162","PAYLOAD","U","23001CQ","2023-09-15 07:16:33","579552","15.2317496","0.0014577","97.4677","317.7425","52.9999","307.2569","0","999","3880","0.0010581","0.00025073","0","4007228","0 SPACEBEE-162","1 55095U 23001CQ  23258.30316643  .00025073  00000-0  10581-2 0  9990","2 55095  97.4677 317.7425 0014577  52.9999 307.2569 15.23174960 38801","2023-001CQ","55095","6874.408","94.539","506.294","486.252","0"
"GENERATED VIA SPACETRACK.ORG API","18 SPCS","55095","SPACEBEE-162","PAYLOAD","U","23001CQ","2023-09-16 03:46:20","594784","15.23210766","0.0014555","97.4673","318.5922","50.1594","310.0921","0","999","3893","0.00095219","0.00022572","0","4008138","0 SPACEBEE-162","1 55095U 23001CQ  23259.15718281  .00022572  00000-0  95219-3 0  9991","2 55095  97.4673 318.5922 0014555  50.1594 310.0921 15.23210766 38938","2023-001CQ","55095","6874.300","94.537","506.171","486.160","0"
"GENERATED VIA SPACETRACK.ORG API","18 SPCS","55095","SPACEBEE-162","PAYLOAD","U","23001CQ","2023-09-16 16:23:07","190304","15.23227626","0.0014459","97.4672","319.1149","48.4621","311.7853","0","999","3901","0.00073249","0.00017344","0","4008407","0 SPACEBEE-162","1 55095U 23001CQ  23259.68272211  .00017344  00000-0  73249-3 0  9997","2 55095  97.4672 319.1149 0014459  48.4621 311.7853 15.23227626 39014","2023-001CQ","55095","6874.250","94.536","506.054","486.175","0"
"GENERATED VIA SPACETRACK.ORG API","18 SPCS","55095","SPACEBEE-162","PAYLOAD","U","23001CQ","2023-09-17 09:43:40","232928","15.23263364","0.001435","97.4668","319.8337","45.8056","314.4357","0","999","3912","0.0012595","0.00029954","0","4008915","0 SPACEBEE-162","1 55095U 23001CQ  23260.40532677  .00029954  00000-0  12595-2 0  9990","2 55095  97.4668 319.8337 0014350  45.8056 314.4357 15.23263364 39128","2023-001CQ","55095","6874.142","94.534","505.872","486.143","0"
"GENERATED VIA SPACETRACK.ORG API","18 SPCS","55095","SPACEBEE-162","PAYLOAD","U","23001CQ","2023-09-17 17:36:38","380320","15.23284423","0.0014304","97.4667","320.1604","44.6927","315.546","0","999","3917","0.0015133","0.00036055","0","4009199","0 SPACEBEE-162","1 55095U 23001CQ  23260.73377755  .00036055  00000-0  15133-2 0  9991","2 55095  97.4667 320.1604 0014304  44.6927 315.5460 15.23284423 39173","2023-001CQ","55095","6874.079","94.533","505.776","486.111","0"
"GENERATED VIA SPACETRACK.ORG API","18 SPCS","55095","SPACEBEE-162","PAYLOAD","U","23001CQ","2023-09-18 03:04:11","856864","15.23300559","0.0014304","97.4665","320.5526","43.158","317.0775","0","999","3923","0.0014397","0.00034306","0","4009540","0 SPACEBEE-162","1 55095U 23001CQ  23261.12791501  .00034306  00000-0  14397-2 0  9992","2 55095  97.4665 320.5526 0014304  43.1580 317.0775 15.23300559 39239","2023-001CQ","55095","6874.030","94.532","505.728","486.063","0"
"GENERATED VIA SPACETRACK.ORG API","18 SPCS","55095","SPACEBEE-162","PAYLOAD","U","23001CQ","2023-09-18 03:04:11","856864","15.23300559","0.0014304","97.4665","320.5526","43.158","317.0775","0","999","3923","0.0014397","0.00034306","0","4009863","0 SPACEBEE-162","1 55095U 23001CQ  23261.12791501  .00034306  00000-0  14397-2 0  9992","2 55095  97.4665 320.5526 0014304  43.1580 317.0775 15.23300559 39239","2023-001CQ","55095","6874.030","94.532","505.728","486.063","0"
"GENERATED VIA SPACETRACK.ORG API","18 SPCS","55095","SPACEBEE-162","PAYLOAD","U","23001CQ","2023-09-18 17:15:31","129920","15.23326946","0.0014229","97.4664","321.1405","41.3556","318.8755","0","999","3932","0.0011503","0.00027391","0","4010111","0 SPACEBEE-162","1 55095U 23001CQ  23261.71911030  .00027391  00000-0  11503-2 0  9990","2 55095  97.4664 321.1405 0014229  41.3556 318.8755 15.23326946 39325","2023-001CQ","55095","6873.951","94.530","505.597","486.035","0"
"GENERATED VIA SPACETRACK.ORG API","18 SPCS","55095","SPACEBEE-162","PAYLOAD","U","23001CQ","2023-09-18 17:15:31","129920","15.23326946","0.0014229","97.4664","321.1405","41.3556","318.8755","0","999","3932","0.0011503","0.00027391","0","4010122","0 SPACEBEE-162","1 55095U 23001CQ  23261.71911030  .00027391  00000-0  11503-2 0  9990","2 55095  97.4664 321.1405 0014229  41.3556 318.8755 15.23326946 39325","2023-001CQ","55095","6873.951","94.530","505.597","486.035","0"
"GENERATED VIA SPACETRACK.ORG API","18 SPCS","55095","SPACEBEE-162","PAYLOAD","U","23001CQ","2023-09-19 02:43:03","217152","15.23356615","0.0014233","97.4663","321.5327","39.899","320.329","0","999","3938","0.0013358","0.00031867","0","4010783","0 SPACEBEE-162","1 55095U 23001CQ  23262.11323168  .00031867  00000-0  13358-2 0  9997","2 55095  97.4663 321.5327 0014233  39.8990 320.3290 15.23356615 39384","2023-001CQ","55095","6873.862","94.528","505.510","485.943","0"
"GENERATED VIA SPACETRACK.ORG API","18 SPCS","55095","SPACEBEE-162","PAYLOAD","U","23001CQ","2023-09-20 03:56:25","750752","15.23429606","0.001421","97.4657","322.5777","36.4173","323.8027","0","999","3954","0.0012314","0.00029425","0","4011433","0 SPACEBEE-162","1 55095U 23001CQ  23263.16418693  .00029425  00000-0  12314-2 0  9999","2 55095  97.4657 322.5777 0014210  36.4173 323.8027 15.23429606 39543","2023-001CQ","55095","6873.642","94.524","505.275","485.740","0"
"GENERATED VIA SPACETRACK.ORG API","18 SPCS","55095","SPACEBEE-162","PAYLOAD","U","23001CQ","2023-09-20 10:14:45","772224","15.23444012","0.0014094","97.4657","322.8388","35.7487","324.4691","0","999","3958","0.0011708","0.00027978","0","4011740","0 SPACEBEE-162","1 55095U 23001CQ  23263.42691866  .00027978  00000-0  11708-2 0  9990","2 55095  97.4657 322.8388 0014094  35.7487 324.4691 15.23444012 39580","2023-001CQ","55095","6873.599","94.523","505.151","485.776","0"
"GENERATED VIA SPACETRACK.ORG API","18 SPCS","55095","SPACEBEE-162","PAYLOAD","U","23001CQ","2023-09-20 16:33:05","628672","15.23456732","0.0014025","97.466","323.1001","34.8396","325.3756","0","999","3962","0.0010621","0.00025374","0","4012054","0 SPACEBEE-162","1 55095U 23001CQ  23263.68964848  .00025374  00000-0  10621-2 0  9992","2 55095  97.4660 323.1001 0014025  34.8396 325.3756 15.23456732 39622","2023-001CQ","55095","6873.560","94.522","505.066","485.785","0"
"GENERATED VIA SPACETRACK.ORG API","18 SPCS","55095","SPACEBEE-162","PAYLOAD","U","23001CQ","2023-09-21 09:53:29","276160","15.2348988","0.0013933","97.4659","323.8188","32.1567","328.0516","0","999","3973","0.0010298","0.00024621","0","4012632","0 SPACEBEE-162","1 55095U 23001CQ  23264.41214440  .00024621  00000-0  10298-2 0  9994","2 55095  97.4659 323.8188 0013933  32.1567 328.0516 15.23489880 39737","2023-001CQ","55095","6873.461","94.520","504.903","485.749","0"
"GENERATED VIA SPACETRACK.ORG API","18 SPCS","55095","SPACEBEE-162","PAYLOAD","U","23001CQ","2023-09-21 09:53:29","276160","15.2348988","0.0013933","97.4659","323.8188","32.1567","328.0516","0","999","3973","0.0010298","0.00024621","0","4012680","0 SPACEBEE-162","1 55095U 23001CQ  23264.41214440  .00024621  00000-0  10298-2 0  9994","2 55095  97.4659 323.8188 0013933  32.1567 328.0516 15.23489880 39737","2023-001CQ","55095","6873.461","94.520","504.903","485.749","0"
